[{"OBJECT_NAME":"TECHNOSAT","OBJECT_ID":"2017-042E","EPOCH":"2026-03-07T10:22:59.575872","MEAN_MOTION":15.04263546,"ECCENTRICITY":0.00197649,"INCLINATION":97.4154,"RA_OF_ASC_NODE":228.0817,"ARG_OF_PERICENTER":82.8188,"MEAN_ANOMALY":277.5284,"EPHEMERIS_TYPE":0,"CLASSIFICATION_TYPE":"U","NORAD_CAT_ID":42829,"ELEMENT_SET_NO":999,"REV_AT_EPOCH":47140,"BSTAR":0.00040393565,"MEAN_MOTION_DOT":5.586e-5,"MEAN_MOTION_DDOT":0},{"OBJECT_NAME":"FLYING LAPTOP","OBJECT_ID":"2017-042G","EPOCH":"2026-03-07T15:27:29.904768","MEAN_MOTION":15.00499223,"ECCENTRICITY":0.00189631,"INCLINATION":97.4268,"RA_OF_ASC_NODE":226.4089,"ARG_OF_PERICENTER":102.0972,"MEAN_ANOMALY":258.2379,"EPHEMERIS_TYPE":0,"CLASSIFICATION_TYPE":"U","NORAD_CAT_ID":42831,"ELEMENT_SET_NO":999,"REV_AT_EPOCH":47122,"BSTAR":0.0002444663,"MEAN_MOTION_DOT":3.034e-5,"MEAN_MOTION_DDOT":0},{"OBJECT_NAME":"HAWK-A","OBJECT_ID":"2018-099H","EPOCH":"2026-03-07T15:21:19.490688","MEAN_MOTION":15.231899,"ECCENTRICITY":0.00343096,"INCLINATION":97.4052,"RA_OF_ASC_NODE":120.2331,"ARG_OF_PERICENTER":283.0325,"MEAN_ANOMALY":76.7083,"EPHEMERIS_TYPE":0,"CLASSIFICATION_TYPE":"U","NORAD_CAT_ID":43765,"ELEMENT_SET_NO":999,"REV_AT_EPOCH":39763,"BSTAR":0.00043887601,"MEAN_MOTION_DOT":0.00010481,"MEAN_MOTION_DDOT":0},{"OBJECT_NAME":"HAWK-B","OBJECT_ID":"2018-099AN","EPOCH":"2026-03-07T14:37:38.747136","MEAN_MOTION":15.21495427,"ECCENTRICITY":0.00313849,"INCLINATION":97.4101,"RA_OF_ASC_NODE":119.8216,"ARG_OF_PERICENTER":301.043,"MEAN_ANOMALY":58.7725,"EPHEMERIS_TYPE":0,"CLASSIFICATION_TYPE":"U","NORAD_CAT_ID":43794,"ELEMENT_SET_NO":999,"REV_AT_EPOCH":39758,"BSTAR":0.00042196723,"MEAN_MOTION_DOT":9.554e-5,"MEAN_MOTION_DDOT":0},{"OBJECT_NAME":"HAWK-C","OBJECT_ID":"2018-099AT","EPOCH":"2026-03-07T15:22:08.171040","MEAN_MOTION":15.26358041,"ECCENTRICITY":0.00404585,"INCLINATION":97.4028,"RA_OF_ASC_NODE":120.6674,"ARG_OF_PERICENTER":284.9335,"MEAN_ANOMALY":74.7425,"EPHEMERIS_TYPE":0,"CLASSIFICATION_TYPE":"U","NORAD_CAT_ID":43799,"ELEMENT_SET_NO":999,"REV_AT_EPOCH":39841,"BSTAR":0.00047360767,"MEAN_MOTION_DOT":0.00012537,"MEAN_MOTION_DDOT":0},{"OBJECT_NAME":"SALSAT","OBJECT_ID":"2020-068K","EPOCH":"2026-03-07T12:17:36.532896","MEAN_MOTION":15.28132776,"ECCENTRICITY":0.00084131,"INCLINATION":97.8857,"RA_OF_ASC_NODE":63.5159,"ARG_OF_PERICENTER":306.1351,"MEAN_ANOMALY":53.9108,"EPHEMERIS_TYPE":0,"CLASSIFICATION_TYPE":"U","NORAD_CAT_ID":46495,"ELEMENT_SET_NO":999,"REV_AT_EPOCH":29982,"BSTAR":0.0005012467,"MEAN_MOTION_DOT":0.0001369,"MEAN_MOTION_DDOT":0},{"OBJECT_NAME":"HAWK-2C","OBJECT_ID":"2021-006CT","EPOCH":"2026-03-07T14:06:04.536864","MEAN_MOTION":15.3324766,"ECCENTRICITY":0.00067586,"INCLINATION":97.2416,"RA_OF_ASC_NODE":112.9497,"ARG_OF_PERICENTER":191.9537,"MEAN_ANOMALY":168.1546,"EPHEMERIS_TYPE":0,"CLASSIFICATION_TYPE":"U","NORAD_CAT_ID":47502,"ELEMENT_SET_NO":999,"REV_AT_EPOCH":28392,"BSTAR":0.00029861106,"MEAN_MOTION_DOT":9.524e-5,"MEAN_MOTION_DDOT":0},{"OBJECT_NAME":"HAWK-2A","OBJECT_ID":"2021-006CW","EPOCH":"2026-03-07T14:11:10.036896","MEAN_MOTION":15.33266131,"ECCENTRICITY":0.00062191,"INCLINATION":97.2462,"RA_OF_ASC_NODE":113.5708,"ARG_OF_PERICENTER":195.2494,"MEAN_ANOMALY":164.8562,"EPHEMERIS_TYPE":0,"CLASSIFICATION_TYPE":"U","NORAD_CAT_ID":47505,"ELEMENT_SET_NO":999,"REV_AT_EPOCH":28392,"BSTAR":0.0003075642,"MEAN_MOTION_DOT":9.817e-5,"MEAN_MOTION_DDOT":0},{"OBJECT_NAME":"HAWK-2B","OBJECT_ID":"2021-006CZ","EPOCH":"2026-03-07T14:06:35.167392","MEAN_MOTION":15.33251509,"ECCENTRICITY":0.00068572,"INCLINATION":97.2332,"RA_OF_ASC_NODE":112.07,"ARG_OF_PERICENTER":193.164,"MEAN_ANOMALY":166.9425,"EPHEMERIS_TYPE":0,"CLASSIFICATION_TYPE":"U","NORAD_CAT_ID":47508,"ELEMENT_SET_NO":999,"REV_AT_EPOCH":28392,"BSTAR":0.00037995365,"MEAN_MOTION_DOT":0.00012145,"MEAN_MOTION_DDOT":0},{"OBJECT_NAME":"HAWK-3B","OBJECT_ID":"2021-059BE","EPOCH":"2026-03-07T11:58:55.299360","MEAN_MOTION":15.61369272,"ECCENTRICITY":0.00052622,"INCLINATION":97.6718,"RA_OF_ASC_NODE":254.2008,"ARG_OF_PERICENTER":346.6212,"MEAN_ANOMALY":13.4905,"EPHEMERIS_TYPE":0,"CLASSIFICATION_TYPE":"U","NORAD_CAT_ID":48931,"ELEMENT_SET_NO":999,"REV_AT_EPOCH":26194,"BSTAR":0.00062755678,"MEAN_MOTION_DOT":0.00053588,"MEAN_MOTION_DDOT":0},{"OBJECT_NAME":"HAWK-3C","OBJECT_ID":"2021-059BX","EPOCH":"2026-03-07T11:58:34.581504","MEAN_MOTION":15.61375677,"ECCENTRICITY":0.0005681,"INCLINATION":97.6865,"RA_OF_ASC_NODE":259.6958,"ARG_OF_PERICENTER":348.3305,"MEAN_ANOMALY":11.7819,"EPHEMERIS_TYPE":0,"CLASSIFICATION_TYPE":"U","NORAD_CAT_ID":48948,"ELEMENT_SET_NO":999,"REV_AT_EPOCH":26194,"BSTAR":0.00060250972,"MEAN_MOTION_DOT":0.00051449,"MEAN_MOTION_DDOT":0},{"OBJECT_NAME":"HAWK-3A","OBJECT_ID":"2021-059CG","EPOCH":"2026-03-07T11:58:19.497792","MEAN_MOTION":15.61369725,"ECCENTRICITY":0.00053192,"INCLINATION":97.6799,"RA_OF_ASC_NODE":256.9857,"ARG_OF_PERICENTER":347.5207,"MEAN_ANOMALY":12.5918,"EPHEMERIS_TYPE":0,"CLASSIFICATION_TYPE":"U","NORAD_CAT_ID":48957,"ELEMENT_SET_NO":999,"REV_AT_EPOCH":26194,"BSTAR":0.00060851144,"MEAN_MOTION_DOT":0.00051949,"MEAN_MOTION_DDOT":0},{"OBJECT_NAME":"HAWK-5C","OBJECT_ID":"2022-057Y","EPOCH":"2026-03-07T14:10:08.611680","MEAN_MOTION":15.47424717,"ECCENTRICITY":0.00056357,"INCLINATION":97.6454,"RA_OF_ASC_NODE":220.1019,"ARG_OF_PERICENTER":82.8635,"MEAN_ANOMALY":277.3255,"EPHEMERIS_TYPE":0,"CLASSIFICATION_TYPE":"U","NORAD_CAT_ID":52754,"ELEMENT_SET_NO":999,"REV_AT_EPOCH":21061,"BSTAR":0.00066035145,"MEAN_MOTION_DOT":0.00033851,"MEAN_MOTION_DDOT":0},{"OBJECT_NAME":"HAWK-5B","OBJECT_ID":"2022-057AA","EPOCH":"2026-03-07T14:09:57.164544","MEAN_MOTION":15.47422314,"ECCENTRICITY":0.00055948,"INCLINATION":97.6456,"RA_OF_ASC_NODE":218.4422,"ARG_OF_PERICENTER":77.6788,"MEAN_ANOMALY":282.5087,"EPHEMERIS_TYPE":0,"CLASSIFICATION_TYPE":"U","NORAD_CAT_ID":52756,"ELEMENT_SET_NO":999,"REV_AT_EPOCH":21061,"BSTAR":0.00060670305,"MEAN_MOTION_DOT":0.00031079,"MEAN_MOTION_DDOT":0},{"OBJECT_NAME":"HAWK-5A","OBJECT_ID":"2022-057AB","EPOCH":"2026-03-07T14:09:33.130656","MEAN_MOTION":15.47420577,"ECCENTRICITY":0.00060155,"INCLINATION":97.6456,"RA_OF_ASC_NODE":219.2759,"ARG_OF_PERICENTER":80.0653,"MEAN_ANOMALY":280.1275,"EPHEMERIS_TYPE":0,"CLASSIFICATION_TYPE":"U","NORAD_CAT_ID":52757,"ELEMENT_SET_NO":999,"REV_AT_EPOCH":21061,"BSTAR":0.00059750598,"MEAN_MOTION_DOT":0.00030606,"MEAN_MOTION_DDOT":0},{"OBJECT_NAME":"HAWK-6B","OBJECT_ID":"2023-011A","EPOCH":"2026-03-07T10:36:27.761472","MEAN_MOTION":15.21874042,"ECCENTRICITY":0.00022805,"INCLINATION":40.5121,"RA_OF_ASC_NODE":225.0662,"ARG_OF_PERICENTER":6.3821,"MEAN_ANOMALY":353.7017,"EPHEMERIS_TYPE":0,"CLASSIFICATION_TYPE":"U","NORAD_CAT_ID":55324,"ELEMENT_SET_NO":999,"REV_AT_EPOCH":17233,"BSTAR":0.00042191252,"MEAN_MOTION_DOT":9.618e-5,"MEAN_MOTION_DDOT":0},{"OBJECT_NAME":"HAWK-6C","OBJECT_ID":"2023-011C","EPOCH":"2026-03-07T12:10:06.863232","MEAN_MOTION":15.21863904,"ECCENTRICITY":0.00028188,"INCLINATION":40.4839,"RA_OF_ASC_NODE":221.5597,"ARG_OF_PERICENTER":354.776,"MEAN_ANOMALY":5.3019,"EPHEMERIS_TYPE":0,"CLASSIFICATION_TYPE":"U","NORAD_CAT_ID":55326,"ELEMENT_SET_NO":999,"REV_AT_EPOCH":17235,"BSTAR":0.00039775709,"MEAN_MOTION_DOT":9.054e-5,"MEAN_MOTION_DDOT":0}]
