TECHNOSAT               
1 42829U 17042E   26066.43263398  .00005586  00000+0  40394-3 0  9993
2 42829  97.4154 228.0817 0019764  82.8188 277.5284 15.04263546471404
FLYING LAPTOP           
1 42831U 17042G   26066.64409612  .00003034  00000+0  24447-3 0  9997
2 42831  97.4268 226.4089 0018963 102.0972 258.2379 15.00499223471222
HAWK-A                  
1 43765U 18099H   26066.63980892  .00010481  00000+0  43888-3 0  9994
2 43765  97.4052 120.2331 0034309 283.0325  76.7083 15.23189900397635
HAWK-B                  
1 43794U 18099AN  26066.60947624  .00009554  00000+0  42197-3 0  9990
2 43794  97.4101 119.8216 0031384 301.0430  58.7725 15.21495427397585
HAWK-C                  
1 43799U 18099AT  26066.64037235  .00012537  00000+0  47361-3 0  9990
2 43799  97.4028 120.6674 0040458 284.9335  74.7425 15.26358041398414
SALSAT                  
1 46495U 20068K   26066.51222839  .00013690  00000+0  50125-3 0  9990
2 46495  97.8857  63.5159 0008413 306.1351  53.9108 15.28132776299826
HAWK-2C                 
1 47502U 21006CT  26066.58755251  .00009524  00000+0  29861-3 0  9993
2 47502  97.2416 112.9497 0006758 191.9537 168.1546 15.33247660283925
HAWK-2A                 
1 47505U 21006CW  26066.59108839  .00009817  00000+0  30756-3 0  9991
2 47505  97.2462 113.5708 0006219 195.2494 164.8562 15.33266131283927
HAWK-2B                 
1 47508U 21006CZ  26066.58790703  .00012145  00000+0  37995-3 0  9990
2 47508  97.2332 112.0700 0006857 193.1640 166.9425 15.33251509283924
HAWK-3B                 
1 48931U 21059BE  26066.49925115  .00053588  00000+0  62756-3 0  9995
2 48931  97.6718 254.2008 0005262 346.6212  13.4905 15.61369272261941
HAWK-3C                 
1 48948U 21059BX  26066.49901136  .00051449  00000+0  60251-3 0  9992
2 48948  97.6865 259.6958 0005681 348.3305  11.7819 15.61375677261943
HAWK-3A                 
1 48957U 21059CG  26066.49883678  .00051949  00000+0  60851-3 0  9993
2 48957  97.6799 256.9857 0005319 347.5207  12.5918 15.61369725261943
HAWK-5C                 
1 52754U 22057Y   26066.59037745  .00033851  00000+0  66035-3 0  9991
2 52754  97.6454 220.1019 0005635  82.8635 277.3255 15.47424717210619
HAWK-5B                 
1 52756U 22057AA  26066.59024496  .00031079  00000+0  60670-3 0  9991
2 52756  97.6456 218.4422 0005594  77.6788 282.5087 15.47422314210618
HAWK-5A                 
1 52757U 22057AB  26066.58996679  .00030606  00000+0  59751-3 0  9995
2 52757  97.6456 219.2759 0006015  80.0653 280.1275 15.47420577210611
HAWK-6B                 
1 55324U 23011A   26066.44198798  .00009618  00000+0  42191-3 0  9999
2 55324  40.5121 225.0662 0002280   6.3821 353.7017 15.21874042172335
HAWK-6C                 
1 55326U 23011C   26066.50702388  .00009054  00000+0  39776-3 0  9993
2 55326  40.4839 221.5597 0002818 354.7760   5.3019 15.21863904172358
